[{"OBJECT_NAME":"STARLINK-30887","OBJECT_ID":"2023-178W","EPOCH":"2026-03-09T05:20:10.641696","MEAN_MOTION":15.3018891,"ECCENTRICITY":9.249e-5,"INCLINATION":53.1618,"RA_OF_ASC_NODE":3.5105,"ARG_OF_PERICENTER":88.339,"MEAN_ANOMALY":271.7716,"EPHEMERIS_TYPE":0,"CLASSIFICATION_TYPE":"U","NORAD_CAT_ID":58394,"ELEMENT_SET_NO":999,"REV_AT_EPOCH":12979,"BSTAR":3.0951253e-5,"MEAN_MOTION_DOT":5.58e-6,"MEAN_MOTION_DDOT":0},{"OBJECT_NAME":"COSMOS 2588","OBJECT_ID":"2025-109A","EPOCH":"2026-03-09T19:28:59.107008","MEAN_MOTION":15.29122656,"ECCENTRICITY":0.0005019,"INCLINATION":72.9704,"RA_OF_ASC_NODE":73.5401,"ARG_OF_PERICENTER":308.678,"MEAN_ANOMALY":51.3966,"EPHEMERIS_TYPE":0,"CLASSIFICATION_TYPE":"U","NORAD_CAT_ID":64095,"ELEMENT_SET_NO":999,"REV_AT_EPOCH":4442,"BSTAR":0.00032611,"MEAN_MOTION_DOT":9.169e-5,"MEAN_MOTION_DDOT":0}]
